OBJECT_NAME,OBJECT_ID,EPOCH,MEAN_MOTION,ECCENTRICITY,INCLINATION,RA_OF_ASC_NODE,ARG_OF_PERICENTER,MEAN_ANOMALY,EPHEMERIS_TYPE,CLASSIFICATION_TYPE,NORAD_CAT_ID,ELEMENT_SET_NO,REV_AT_EPOCH,BSTAR,MEAN_MOTION_DOT,MEAN_MOTION_DDOT
GLOBALSTAR M069,2007-020C,2026-07-06T17:47:55.210272,12.23472102,.0001876,51.9995,196.7792,191.2816,340.2200,0,U,31573,999,88119,.20037E-3,-.71E-6,0
GLOBALSTAR M072,2007-020D,2026-07-06T00:46:58.660032,11.91658629,.00016046,51.9943,50.0744,16.7469,150.6245,0,U,31574,999,87722,.12179212E-3,-.75E-6,0
GLOBALSTAR M066,2007-048C,2026-07-06T17:23:28.800096,12.30388599,.0005643,51.9608,1.8266,85.1113,288.6771,0,U,32265,999,86263,.414E-3,-.46E-6,0
GLOBALSTAR M079,2010-054A,2026-07-06T02:00:55.475424,12.62266454,.0001063,52.0046,51.1460,62.2784,102.1981,0,U,37188,999,72493,.35676E-4,-.97E-6,0
GLOBALSTAR M074,2010-054B,2026-07-06T00:48:56.272032,12.62261915,.0000832,52.0026,50.5602,79.0429,98.2745,0,U,37189,999,72553,.30384E-4,-.98E-6,0
GLOBALSTAR M076,2010-054C,2026-07-06T01:22:49.340064,12.62262090,.0001054,52.0038,50.6936,75.0656,89.1324,0,U,37190,999,72525,.58162E-4,-.93E-6,0
GLOBALSTAR M077,2010-054D,2026-07-06T05:37:50.861280,11.67547921,.00024138,51.9940,130.9494,207.8288,300.3196,0,U,37191,999,72336,.25916887E-3,-.64E-6,0
GLOBALSTAR M075,2010-054E,2026-07-06T05:31:40.215648,12.62267716,.00005977,51.9945,92.2105,50.6877,119.4926,0,U,37192,999,72434,.14613335E-3,-.78E-6,0
GLOBALSTAR M073,2010-054F,2026-07-06T18:01:38.477856,12.62266881,.0001109,52.0074,4.7402,84.5846,291.7864,0,U,37193,999,72640,.54222E-4,-.94E-6,0
GLOBALSTAR M083,2011-033A,2026-07-06T12:58:22.946304,12.62263900,.0000902,51.9876,313.5840,96.2727,343.9772,0,U,37739,999,69539,.1208E-3,-.82E-6,0
GLOBALSTAR M088,2011-033B,2026-07-06T06:38:26.363328,12.62269262,.00002504,52.0187,220.8624,154.6633,284.6184,0,U,37740,999,69090,.24941017E-4,-.99E-6,0
GLOBALSTAR M091,2011-033C,2026-07-06T09:12:43.930656,12.62264143,.00001905,51.9966,183.4720,359.9947,147.1499,0,U,37741,999,69170,.12404717E-4,-.102E-5,0
GLOBALSTAR M085,2011-033D,2026-07-06T05:02:54.526848,12.62264232,.00005721,52.0113,135.3081,21.1784,117.2647,0,U,37742,999,69219,.9788521E-4,-.86E-6,0
GLOBALSTAR M081,2011-033E,2026-07-06T05:41:26.406816,12.62265319,.00004711,51.9943,137.6411,43.3008,96.5737,0,U,37743,999,69234,.75192013E-4,-.9E-6,0
GLOBALSTAR M089,2011-033F,2026-07-06T21:30:49.861152,12.62267524,.0000619,51.9930,89.7894,82.1737,356.1485,0,U,37744,999,69327,.49235E-4,-.95E-6,0
GLOBALSTAR M084,2011-080A,2026-07-06T16:15:47.464416,12.62267775,.0001006,52.0030,317.9472,117.5758,346.0140,0,U,38040,999,67122,.69683E-4,-.91E-6,0
GLOBALSTAR M080,2011-080B,2026-07-06T13:33:22.342752,12.62265488,.0000417,52.0077,320.0153,84.0224,356.8185,0,U,38041,999,67133,.6373E-4,-.92E-6,0
GLOBALSTAR M082,2011-080C,2026-07-06T14:04:26.858208,12.62263903,.0000302,52.0078,275.4537,112.4780,356.2185,0,U,38042,999,67204,.46668E-4,-.95E-6,0
GLOBALSTAR M092,2011-080D,2026-07-06T00:28:49.366848,12.62267535,.0000843,52.0098,7.5744,89.6289,83.2293,0,U,38043,999,67042,.12781E-3,-.81E-6,0
GLOBALSTAR M090,2011-080E,2026-07-06T12:49:38.558784,12.62252898,.0000506,52.0122,269.5743,106.9061,4.4358,0,U,38044,999,67215,.92001E-4,-.87E-6,0
GLOBALSTAR M086,2011-080F,2026-07-06T09:21:27.379872,12.62287729,.00016388,51.9895,269.9117,98.9551,337.9849,0,U,38045,999,67208,.13525032E-3,-.8E-6,0
GLOBALSTAR M097,2013-005A,2026-07-06T04:00:37.008864,12.62271324,.00002212,52.0014,185.5594,39.5863,320.5020,0,U,39072,999,61930,-.908392E-6,-.104E-5,0
GLOBALSTAR M093,2013-005B,2026-07-06T16:40:11.565120,12.62266212,.0000434,52.0076,177.3072,33.6957,326.3938,0,U,39073,999,61932,.49264E-4,-.95E-6,0
GLOBALSTAR M094,2013-005C,2026-07-06T03:21:47.988864,12.62268515,.000086,51.9958,93.0930,45.9390,314.1547,0,U,39074,999,62086,.75598E-4,-.9E-6,0
GLOBALSTAR M096,2013-005D,2026-07-06T05:35:18.379968,12.62265613,.00005266,52.0052,141.6262,24.7774,335.3118,0,U,39075,999,61979,.63036957E-4,-.92E-6,0
GLOBALSTAR M078,2013-005E,2026-07-06T06:50:35.467872,12.62259978,.00006327,51.9848,225.4530,310.0084,50.0727,0,U,39076,999,61842,.1126552E-5,-.104E-5,0
GLOBALSTAR M095,2013-005F,2026-07-06T11:17:05.371584,12.62263954,.00002102,52.0056,222.5205,2.5052,357.5816,0,U,39077,999,61830,.34778127E-4,-.98E-6,0
GLOBALSTAR M087,2022-064A,2026-07-06T15:24:04.519008,12.62269292,.000095,52.0012,3.2245,72.9259,287.1711,0,U,52888,999,19359,-.20116E-5,-.104E-5,0
